OBJECT_NAME,OBJECT_ID,EPOCH,MEAN_MOTION,ECCENTRICITY,INCLINATION,RA_OF_ASC_NODE,ARG_OF_PERICENTER,MEAN_ANOMALY,EPHEMERIS_TYPE,CLASSIFICATION_TYPE,NORAD_CAT_ID,ELEMENT_SET_NO,REV_AT_EPOCH,BSTAR,MEAN_MOTION_DOT,MEAN_MOTION_DDOT
ELEKTRO-L 3,2019-095A,2026-07-07T12:23:52.892160,1.00271960,.0001497,0.3059,82.1065,13.9900,91.3503,0,U,44903,999,2391,0,-.82E-6,0
SHIJIAN-20 (SJ-20),2019-097A,2026-07-07T07:06:46.871712,1.00277050,.0015605,4.9666,74.8162,58.4611,303.5963,0,U,44910,999,2390,0,.147E-5,0
TJS-5,2020-002A,2026-07-06T21:08:52.521216,1.00273081,.0008101,0.0418,68.7420,346.7653,294.0821,0,U,44978,999,2390,0,-.327E-5,0
GSAT-30,2020-005A,2026-07-07T12:25:30.234720,1.00270219,.0003335,0.0284,94.2917,357.3977,103.1887,0,U,45026,999,2371,0,-.149E-5,0
EUTELSAT KONNECT,2020-005B,2026-07-07T01:48:15.304896,1.00274681,.000224,0.0668,94.2131,131.4503,93.6723,0,U,45027,999,2453,0,.65E-6,0
JCSAT-17,2020-013A,2026-07-07T12:00:54.806112,1.00272663,.0002995,5.3918,357.0448,121.4032,123.2677,0,U,45245,999,2343,0,-.302E-5,0
GEO-KOMPSAT-2B,2020-013B,2026-07-07T12:38:43.715040,1.00270644,.0000808,0.0427,206.0216,29.0282,8.3885,0,U,45246,999,2348,0,-.328E-5,0
BEIDOU-3 G2,2020-017A,2026-07-07T12:25:00.284160,1.00270621,.0002388,2.9027,47.6202,53.0238,91.1692,0,U,45344,999,2346,0,-.127E-5,0
AEHF-6 (USA 298),2020-022B,2026-07-07T12:41:20.963040,1.00274720,.0041983,2.5057,301.3728,15.7346,296.4549,0,U,45465,999,2321,0,-.281E-5,0
BEIDOU-3 G3,2020-040A,2026-07-07T12:33:44.194752,1.00268577,.0002094,2.4940,67.4772,333.7421,183.2386,0,U,45807,999,2227,0,-.34E-5,0
APSTAR-6D,2020-045A,2026-07-06T21:16:29.291232,1.00271564,.0002189,0.0392,86.1816,12.0255,279.8341,0,U,45863,999,2205,0,-.302E-5,0
KOREASAT 116,2020-048A,2026-07-07T12:35:14.049888,1.00271118,.000091,0.0156,356.8527,105.6589,128.0173,0,U,45920,999,2184,0,-.347E-5,0
EXPRESS 103,2020-053A,2026-07-07T12:29:43.303776,1.00273051,.0001616,0.0324,258.2316,221.8040,89.3867,0,U,45985,999,2185,0,-.266E-5,0
EXPRESS 80,2020-053B,2026-07-06T23:40:15.041280,1.00270301,.0001752,0.0186,7.8144,196.9779,155.1993,0,U,45986,999,2183,0,0,0
BSAT-4B,2020-056A,2026-07-06T22:52:11.393760,1.00267286,.0004183,0.0117,160.0498,331.6223,246.1268,0,U,46112,999,2158,0,0,0
MEV-2,2020-056B,2026-07-07T06:53:55.603968,1.00264278,.0000323,0.0448,260.4083,25.0168,102.3088,0,U,46113,999,8091,0,.3E-7,0
GALAXY 30 (G-30),2020-056C,2026-07-06T18:19:48.355968,1.00270907,.0002186,0.0206,38.7570,67.2773,328.6685,0,U,46114,999,2148,0,.52E-6,0
GAOFEN-13 01,2020-071A,2026-07-07T12:35:51.491328,1.00270152,.0045039,0.4473,86.2914,120.1403,26.3069,0,U,46610,999,2112,0,-.348E-5,0
TIANTONG-1 2,2020-082A,2026-07-07T12:37:43.811328,1.00271017,.0001506,0.7666,330.4000,131.9162,137.5677,0,U,46916,999,2085,0,-.34E-5,0
LUCAS (JDRS-1),2020-089A,2026-07-07T10:45:25.929792,1.00273301,.000184,0.0474,267.6220,188.2486,81.6930,0,U,47202,999,2062,0,-.221E-5,0
SXM-7,2020-096A,2026-07-07T10:55:48.313056,1.00270625,.0003703,0.0228,101.7663,19.3506,243.1057,0,U,47240,999,764,0,-.19E-5,0
CMS-01,2020-099A,2026-07-07T03:52:36.015744,1.00270158,.0003355,0.0541,92.9269,176.9352,156.4053,0,U,47256,999,2039,0,-.149E-5,0
TURKSAT 5A,2021-001A,2026-07-07T12:10:54.136128,1.00271036,.000013,0.0162,67.9135,161.1527,270.0591,0,U,47306,999,2017,0,.169E-5,0
TIANTONG-1 3,2021-003A,2026-07-07T12:25:22.748160,1.00272109,.0003368,1.7410,340.5214,132.0551,80.8046,0,U,47321,999,2016,0,-.14E-5,0
TJS-6,2021-010A,2026-07-07T12:14:59.212320,1.00271275,.0003283,0.2008,262.4195,232.4334,152.8304,0,U,47613,999,2001,0,.58E-6,0
SBIRS GEO-5 (USA 315),2021-042A,2026-07-07T11:09:38.622240,1.00271142,.0001645,5.0790,329.2611,149.0714,68.3248,0,U,48618,999,1897,0,-.253E-5,0
FENGYUN 4B,2021-047A,2026-07-07T12:31:59.362176,1.00266878,.0005756,0.2002,79.4428,275.0707,223.6440,0,U,48808,999,1877,0,-.314E-5,0
SXM-8,2021-049A,2026-07-07T01:21:59.252256,1.00272793,.0005399,0.0141,29.2514,2.8341,188.2994,0,U,48838,999,1878,0,-.19E-5,0
TIANLIAN 1-05,2021-063A,2026-07-07T08:41:35.275776,1.00271261,.0000822,1.6426,80.5412,65.8022,286.2336,0,U,49011,999,1827,0,.122E-5,0
STAR ONE D2,2021-069A,2026-07-07T01:26:13.845408,1.00268686,.0002275,0.0142,16.9547,111.5867,107.9543,0,U,49055,999,1814,0,0,0
EUTELSAT QUANTUM,2021-069B,2026-07-07T12:15:46.168992,1.00272548,.0002287,0.0338,292.7550,175.9901,48.3939,0,U,49056,999,1813,0,.141E-5,0
ZHONGXING-2E,2021-071A,2026-07-07T12:29:43.302912,1.00271342,.0001875,0.0466,110.9333,40.8033,59.2572,0,U,49062,999,1824,0,-.276E-5,0
