ELEKTRO-L 3             
1 44903U 19095A   26188.51658440 -.00000082  00000+0  00000+0 0  9991
2 44903   0.3059  82.1065 0001497  13.9900  91.3503  1.00271960 23916
SHIJIAN-20 (SJ-20)      
1 44910U 19097A   26188.29637583  .00000147  00000+0  00000+0 0  9992
2 44910   4.9666  74.8162 0015605  58.4611 303.5963  1.00277050 23906
TJS-5                   
1 44978U 20002A   26187.88116344 -.00000327  00000+0  00000+0 0  9996
2 44978   0.0418  68.7420 0008101 346.7653 294.0821  1.00273081 23900
GSAT-30                 
1 45026U 20005A   26188.51771105 -.00000149  00000+0  00000+0 0  9999
2 45026   0.0284  94.2917 0003335 357.3977 103.1887  1.00270219 23713
EUTELSAT KONNECT        
1 45027U 20005B   26188.07517714  .00000065  00000+0  00000+0 0  9991
2 45027   0.0668  94.2131 0002240 131.4503  93.6723  1.00274681 24538
JCSAT-17                
1 45245U 20013A   26188.50063433 -.00000302  00000+0  00000+0 0  9999
2 45245   5.3918 357.0448 0002995 121.4032 123.2677  1.00272663 23434
GEO-KOMPSAT-2B          
1 45246U 20013B   26188.52689485 -.00000328  00000+0  00000+0 0  9991
2 45246   0.0427 206.0216 0000808  29.0282   8.3885  1.00270644 23485
BEIDOU-3 G2             
1 45344U 20017A   26188.51736440 -.00000127  00000+0  00000+0 0  9994
2 45344   2.9027  47.6202 0002388  53.0238  91.1692  1.00270621 23467
AEHF-6 (USA 298)        
1 45465U 20022B   26188.52871485 -.00000281  00000+0  00000+0 0  9995
2 45465   2.5057 301.3728 0041983  15.7346 296.4549  1.00274720 23210
BEIDOU-3 G3             
1 45807U 20040A   26188.52342818 -.00000340  00000+0  00000+0 0  9994
2 45807   2.4940  67.4772 0002094 333.7421 183.2386  1.00268577 22276
APSTAR-6D               
1 45863U 20045A   26187.88645013 -.00000302  00000+0  00000+0 0  9990
2 45863   0.0392  86.1816 0002189  12.0255 279.8341  1.00271564 22056
KOREASAT 116            
1 45920U 20048A   26188.52446817 -.00000347  00000+0  00000+0 0  9999
2 45920   0.0156 356.8527 0000910 105.6589 128.0173  1.00271118 21842
EXPRESS 103             
1 45985U 20053A   26188.52064009 -.00000266  00000+0  00000+0 0  9995
2 45985   0.0324 258.2316 0001616 221.8040  89.3867  1.00273051 21856
EXPRESS 80              
1 45986U 20053B   26187.98628520  .00000000  00000+0  00000+0 0  9994
2 45986   0.0186   7.8144 0001752 196.9779 155.1993  1.00270301 21837
BSAT-4B                 
1 46112U 20056A   26187.95290965  .00000000  00000+0  00000+0 0  9994
2 46112   0.0117 160.0498 0004183 331.6223 246.1268  1.00267286 21586
MEV-2                   
1 46113U 20056B   26188.28744912  .00000003  00000+0  00000+0 0  9991
2 46113   0.0448 260.4083 0000323  25.0168 102.3088  1.00264278 80916
GALAXY 30 (G-30)        
1 46114U 20056C   26187.76375412  .00000052  00000+0  00000+0 0  9993
2 46114   0.0206  38.7570 0002186  67.2773 328.6685  1.00270907 21484
GAOFEN-13 01            
1 46610U 20071A   26188.52490152 -.00000348  00000+0  00000+0 0  9994
2 46610   0.4473  86.2914 0045039 120.1403  26.3069  1.00270152 21129
TIANTONG-1 2            
1 46916U 20082A   26188.52620152 -.00000340  00000+0  00000+0 0  9992
2 46916   0.7666 330.4000 0001506 131.9162 137.5677  1.00271017 20858
LUCAS (JDRS-1)          
1 47202U 20089A   26188.44821678 -.00000221  00000+0  00000+0 0  9993
2 47202   0.0474 267.6220 0001840 188.2486  81.6930  1.00273301 20621
SXM-7                   
1 47240U 20096A   26188.45542029 -.00000190  00000+0  00000+0 0  9999
2 47240   0.0228 101.7663 0003703  19.3506 243.1057  1.00270625  7644
CMS-01                  
1 47256U 20099A   26188.16152796 -.00000149  00000+0  00000+0 0  9999
2 47256   0.0541  92.9269 0003355 176.9352 156.4053  1.00270158 20394
TURKSAT 5A              
1 47306U 21001A   26188.50757102  .00000169  00000+0  00000+0 0  9990
2 47306   0.0162  67.9135 0000130 161.1527 270.0591  1.00271036 20173
TIANTONG-1 3            
1 47321U 21003A   26188.51762440 -.00000140  00000+0  00000+0 0  9991
2 47321   1.7410 340.5214 0003368 132.0551  80.8046  1.00272109 20165
TJS-6                   
1 47613U 21010A   26188.51040755  .00000058  00000+0  00000+0 0  9998
2 47613   0.2008 262.4195 0003283 232.4334 152.8304  1.00271275 20010
SBIRS GEO-5 (USA 315)   
1 48618U 21042A   26188.46503035 -.00000253  00000+0  00000+0 0  9996
2 48618   5.0790 329.2611 0001645 149.0714  68.3248  1.00271142 18970
FENGYUN 4B              
1 48808U 21047A   26188.52221484 -.00000314  00000+0  00000+0 0  9992
2 48808   0.2002  79.4428 0005756 275.0707 223.6440  1.00266878 18771
SXM-8                   
1 48838U 21049A   26188.05693579 -.00000190  00000+0  00000+0 0  9995
2 48838   0.0141  29.2514 0005399   2.8341 188.2994  1.00272793 18782
TIANLIAN 1-05           
1 49011U 21063A   26188.36221384  .00000122  00000+0  00000+0 0  9994
2 49011   1.6426  80.5412 0000822  65.8022 286.2336  1.00271261 18279
STAR ONE D2             
1 49055U 21069A   26188.05988247  .00000000  00000+0  00000+0 0  9997
2 49055   0.0142  16.9547 0002275 111.5867 107.9543  1.00268686 18149
EUTELSAT QUANTUM        
1 49056U 21069B   26188.51095103  .00000141  00000+0  00000+0 0  9995
2 49056   0.0338 292.7550 0002287 175.9901  48.3939  1.00272548 18139
ZHONGXING-2E            
1 49062U 21071A   26188.52064008 -.00000276  00000+0  00000+0 0  9996
2 49062   0.0466 110.9333 0001875  40.8033  59.2572  1.00271342 18243
